STARLINK-36484          
1 67404U 26005A   26024.25002315 -.01341182  00000+0 -71083-2 0  9998
2 67404  43.0005 135.4747 0001451 275.2321 141.6055 15.82487663  2991
STARLINK-36452          
1 67405U 26005B   26024.25002315 -.01345600  00000+0 -71405-2 0  9996
2 67405  43.0007 135.4691 0001458 272.7460 146.3615 15.82471654  2992
STARLINK-36409          
1 67406U 26005C   26024.25002315 -.01351832  00000+0 -71780-2 0  9997
2 67406  43.0005 135.4638 0001484 277.3027 143.9097 15.82472436  3044
STARLINK-36510          
1 67407U 26005D   26024.25002315 -.01385303  00000+0 -72196-2 0  9990
2 67407  43.0005 135.4589 0001352 269.9394 153.2755 15.82480337  3042
STARLINK-36509          
1 67408U 26005E   26024.25002315 -.01389887  00000+0 -72515-2 0  9997
2 67408  43.0006 135.4527 0001448 275.9043 149.5874 15.82464610  3046
STARLINK-36507          
1 67409U 26005F   26024.25002315 -.01399277  00000+0 -73039-2 0  9994
2 67409  43.0006 135.4476 0001375 276.0679 151.4402 15.82472807  3042
STARLINK-36508          
1 67410U 26005G   26024.25002315 -.01408529  00000+0 -73633-2 0  9997
2 67410  43.0007 135.4420 0001302 270.1092 159.6878 15.82459161  3043
STARLINK-36503          
1 67411U 26005H   26024.25002315 -.01407772  00000+0 -73534-2 0  9997
2 67411  43.0007 135.4371 0001615 273.3759 158.3126 15.82471109  2789
STARLINK-36446          
1 67412U 26005J   26024.25002315 -.01412533  00000+0 -73843-2 0  9992
2 67412  43.0008 135.4318 0001506 272.9771 160.8791 15.82464155  3049
STARLINK-36442          
1 67413U 26005K   26024.25002315 -.01417720  00000+0 -74235-2 0  9992
2 67413  43.0003 135.4256 0001629 277.5034 158.7310 15.82437975  3048
STARLINK-36506          
1 67414U 26005L   26024.25002315 -.01425552  00000+0 -74641-2 0  9996
2 67414  43.0006 135.4207 0001614 272.9763 165.1953 15.82454005  3048
STARLINK-36468          
1 67415U 26005M   26024.25002315 -.01428797  00000+0 -74745-2 0  9996
2 67415  43.0005 135.4164 0001445 272.1389 167.8043 15.82480447  2999
