CCSDS_OMM_VERS = 2.0
CREATION_DATE  = 
ORIGINATOR     = 

OBJECT_NAME    = STARLINK-36484
OBJECT_ID      = 2026-005A
CENTER_NAME    = EARTH
REF_FRAME      = TEME
TIME_SYSTEM    = UTC
MEAN_ELEMENT_THEORY = SGP/SGP4

EPOCH          = 2026-01-24T06:00:02.000160
MEAN_MOTION    = 15.82487663
ECCENTRICITY   = .0001451
INCLINATION    = 43.0005
RA_OF_ASC_NODE = 135.4747
ARG_OF_PERICENTER = 275.2321
MEAN_ANOMALY   = 141.6055

EPHEMERIS_TYPE = 0
CLASSIFICATION_TYPE = U
NORAD_CAT_ID   = 67404
ELEMENT_SET_NO = 999
REV_AT_EPOCH   = 299
BSTAR          = -.71082786E-2
MEAN_MOTION_DOT = -.1341182E-1
MEAN_MOTION_DDOT = 0

CCSDS_OMM_VERS = 2.0
CREATION_DATE  = 
ORIGINATOR     = 

OBJECT_NAME    = STARLINK-36452
OBJECT_ID      = 2026-005B
CENTER_NAME    = EARTH
REF_FRAME      = TEME
TIME_SYSTEM    = UTC
MEAN_ELEMENT_THEORY = SGP/SGP4

EPOCH          = 2026-01-24T06:00:02.000160
MEAN_MOTION    = 15.82471654
ECCENTRICITY   = .00014583
INCLINATION    = 43.0007
RA_OF_ASC_NODE = 135.4691
ARG_OF_PERICENTER = 272.7460
MEAN_ANOMALY   = 146.3615

EPHEMERIS_TYPE = 0
CLASSIFICATION_TYPE = U
NORAD_CAT_ID   = 67405
ELEMENT_SET_NO = 999
REV_AT_EPOCH   = 299
BSTAR          = -.71404989E-2
MEAN_MOTION_DOT = -.13456E-1
MEAN_MOTION_DDOT = 0

CCSDS_OMM_VERS = 2.0
CREATION_DATE  = 
ORIGINATOR     = 

OBJECT_NAME    = STARLINK-36409
OBJECT_ID      = 2026-005C
CENTER_NAME    = EARTH
REF_FRAME      = TEME
TIME_SYSTEM    = UTC
MEAN_ELEMENT_THEORY = SGP/SGP4

EPOCH          = 2026-01-24T06:00:02.000160
MEAN_MOTION    = 15.82472436
ECCENTRICITY   = .00014842
INCLINATION    = 43.0005
RA_OF_ASC_NODE = 135.4638
ARG_OF_PERICENTER = 277.3027
MEAN_ANOMALY   = 143.9097

EPHEMERIS_TYPE = 0
CLASSIFICATION_TYPE = U
NORAD_CAT_ID   = 67406
ELEMENT_SET_NO = 999
REV_AT_EPOCH   = 304
BSTAR          = -.71780188E-2
MEAN_MOTION_DOT = -.1351832E-1
MEAN_MOTION_DDOT = 0

CCSDS_OMM_VERS = 2.0
CREATION_DATE  = 
ORIGINATOR     = 

OBJECT_NAME    = STARLINK-36510
OBJECT_ID      = 2026-005D
CENTER_NAME    = EARTH
REF_FRAME      = TEME
TIME_SYSTEM    = UTC
MEAN_ELEMENT_THEORY = SGP/SGP4

EPOCH          = 2026-01-24T06:00:02.000160
MEAN_MOTION    = 15.82480337
ECCENTRICITY   = .00013527
INCLINATION    = 43.0005
RA_OF_ASC_NODE = 135.4589
ARG_OF_PERICENTER = 269.9394
MEAN_ANOMALY   = 153.2755

EPHEMERIS_TYPE = 0
CLASSIFICATION_TYPE = U
NORAD_CAT_ID   = 67407
ELEMENT_SET_NO = 999
REV_AT_EPOCH   = 304
BSTAR          = -.72196327E-2
MEAN_MOTION_DOT = -.1385303E-1
MEAN_MOTION_DDOT = 0

CCSDS_OMM_VERS = 2.0
CREATION_DATE  = 
ORIGINATOR     = 

OBJECT_NAME    = STARLINK-36509
OBJECT_ID      = 2026-005E
CENTER_NAME    = EARTH
REF_FRAME      = TEME
TIME_SYSTEM    = UTC
MEAN_ELEMENT_THEORY = SGP/SGP4

EPOCH          = 2026-01-24T06:00:02.000160
MEAN_MOTION    = 15.82464610
ECCENTRICITY   = .00014484
INCLINATION    = 43.0006
RA_OF_ASC_NODE = 135.4527
ARG_OF_PERICENTER = 275.9043
MEAN_ANOMALY   = 149.5874

EPHEMERIS_TYPE = 0
CLASSIFICATION_TYPE = U
NORAD_CAT_ID   = 67408
ELEMENT_SET_NO = 999
REV_AT_EPOCH   = 304
BSTAR          = -.72515029E-2
MEAN_MOTION_DOT = -.1389887E-1
MEAN_MOTION_DDOT = 0

CCSDS_OMM_VERS = 2.0
CREATION_DATE  = 
ORIGINATOR     = 

OBJECT_NAME    = STARLINK-36507
OBJECT_ID      = 2026-005F
CENTER_NAME    = EARTH
REF_FRAME      = TEME
TIME_SYSTEM    = UTC
MEAN_ELEMENT_THEORY = SGP/SGP4

EPOCH          = 2026-01-24T06:00:02.000160
MEAN_MOTION    = 15.82472807
ECCENTRICITY   = .00013758
INCLINATION    = 43.0006
RA_OF_ASC_NODE = 135.4476
ARG_OF_PERICENTER = 276.0679
MEAN_ANOMALY   = 151.4402

EPHEMERIS_TYPE = 0
CLASSIFICATION_TYPE = U
NORAD_CAT_ID   = 67409
ELEMENT_SET_NO = 999
REV_AT_EPOCH   = 304
BSTAR          = -.73039365E-2
MEAN_MOTION_DOT = -.1399277E-1
MEAN_MOTION_DDOT = 0

CCSDS_OMM_VERS = 2.0
CREATION_DATE  = 
ORIGINATOR     = 

OBJECT_NAME    = STARLINK-36508
OBJECT_ID      = 2026-005G
CENTER_NAME    = EARTH
REF_FRAME      = TEME
TIME_SYSTEM    = UTC
MEAN_ELEMENT_THEORY = SGP/SGP4

EPOCH          = 2026-01-24T06:00:02.000160
MEAN_MOTION    = 15.82459161
ECCENTRICITY   = .00013021
INCLINATION    = 43.0007
RA_OF_ASC_NODE = 135.4420
ARG_OF_PERICENTER = 270.1092
MEAN_ANOMALY   = 159.6878

EPHEMERIS_TYPE = 0
CLASSIFICATION_TYPE = U
NORAD_CAT_ID   = 67410
ELEMENT_SET_NO = 999
REV_AT_EPOCH   = 304
BSTAR          = -.73632666E-2
MEAN_MOTION_DOT = -.1408529E-1
MEAN_MOTION_DDOT = 0

CCSDS_OMM_VERS = 2.0
CREATION_DATE  = 
ORIGINATOR     = 

OBJECT_NAME    = STARLINK-36503
OBJECT_ID      = 2026-005H
CENTER_NAME    = EARTH
REF_FRAME      = TEME
TIME_SYSTEM    = UTC
MEAN_ELEMENT_THEORY = SGP/SGP4

EPOCH          = 2026-01-24T06:00:02.000160
MEAN_MOTION    = 15.82471109
ECCENTRICITY   = .00016159
INCLINATION    = 43.0007
RA_OF_ASC_NODE = 135.4371
ARG_OF_PERICENTER = 273.3759
MEAN_ANOMALY   = 158.3126

EPHEMERIS_TYPE = 0
CLASSIFICATION_TYPE = U
NORAD_CAT_ID   = 67411
ELEMENT_SET_NO = 999
REV_AT_EPOCH   = 278
BSTAR          = -.73534485E-2
MEAN_MOTION_DOT = -.1407772E-1
MEAN_MOTION_DDOT = 0

CCSDS_OMM_VERS = 2.0
CREATION_DATE  = 
ORIGINATOR     = 

OBJECT_NAME    = STARLINK-36446
OBJECT_ID      = 2026-005J
CENTER_NAME    = EARTH
REF_FRAME      = TEME
TIME_SYSTEM    = UTC
MEAN_ELEMENT_THEORY = SGP/SGP4

EPOCH          = 2026-01-24T06:00:02.000160
MEAN_MOTION    = 15.82464155
ECCENTRICITY   = .00015064
INCLINATION    = 43.0008
RA_OF_ASC_NODE = 135.4318
ARG_OF_PERICENTER = 272.9771
MEAN_ANOMALY   = 160.8791

EPHEMERIS_TYPE = 0
CLASSIFICATION_TYPE = U
NORAD_CAT_ID   = 67412
ELEMENT_SET_NO = 999
REV_AT_EPOCH   = 304
BSTAR          = -.73842724E-2
MEAN_MOTION_DOT = -.1412533E-1
MEAN_MOTION_DDOT = 0

CCSDS_OMM_VERS = 2.0
CREATION_DATE  = 
ORIGINATOR     = 

OBJECT_NAME    = STARLINK-36442
OBJECT_ID      = 2026-005K
CENTER_NAME    = EARTH
REF_FRAME      = TEME
TIME_SYSTEM    = UTC
MEAN_ELEMENT_THEORY = SGP/SGP4

EPOCH          = 2026-01-24T06:00:02.000160
MEAN_MOTION    = 15.82437975
ECCENTRICITY   = .00016292
INCLINATION    = 43.0003
RA_OF_ASC_NODE = 135.4256
ARG_OF_PERICENTER = 277.5034
MEAN_ANOMALY   = 158.7310

EPHEMERIS_TYPE = 0
CLASSIFICATION_TYPE = U
NORAD_CAT_ID   = 67413
ELEMENT_SET_NO = 999
REV_AT_EPOCH   = 304
BSTAR          = -.7423522E-2
MEAN_MOTION_DOT = -.141772E-1
MEAN_MOTION_DDOT = 0

CCSDS_OMM_VERS = 2.0
CREATION_DATE  = 
ORIGINATOR     = 

OBJECT_NAME    = STARLINK-36506
OBJECT_ID      = 2026-005L
CENTER_NAME    = EARTH
REF_FRAME      = TEME
TIME_SYSTEM    = UTC
MEAN_ELEMENT_THEORY = SGP/SGP4

EPOCH          = 2026-01-24T06:00:02.000160
MEAN_MOTION    = 15.82454005
ECCENTRICITY   = .00016142
INCLINATION    = 43.0006
RA_OF_ASC_NODE = 135.4207
ARG_OF_PERICENTER = 272.9763
MEAN_ANOMALY   = 165.1953

EPHEMERIS_TYPE = 0
CLASSIFICATION_TYPE = U
NORAD_CAT_ID   = 67414
ELEMENT_SET_NO = 999
REV_AT_EPOCH   = 304
BSTAR          = -.74640675E-2
MEAN_MOTION_DOT = -.1425552E-1
MEAN_MOTION_DDOT = 0

CCSDS_OMM_VERS = 2.0
CREATION_DATE  = 
ORIGINATOR     = 

OBJECT_NAME    = STARLINK-36468
OBJECT_ID      = 2026-005M
CENTER_NAME    = EARTH
REF_FRAME      = TEME
TIME_SYSTEM    = UTC
MEAN_ELEMENT_THEORY = SGP/SGP4

EPOCH          = 2026-01-24T06:00:02.000160
MEAN_MOTION    = 15.82480447
ECCENTRICITY   = .00014454
INCLINATION    = 43.0005
RA_OF_ASC_NODE = 135.4164
ARG_OF_PERICENTER = 272.1389
MEAN_ANOMALY   = 167.8043

EPHEMERIS_TYPE = 0
CLASSIFICATION_TYPE = U
NORAD_CAT_ID   = 67415
ELEMENT_SET_NO = 999
REV_AT_EPOCH   = 299
BSTAR          = -.74744668E-2
MEAN_MOTION_DOT = -.1428797E-1
MEAN_MOTION_DDOT = 0

